[{"OBJECT_NAME":"STARLINK-32235","OBJECT_ID":"2024-152V","EPOCH":"2026-03-09T17:23:18.953952","MEAN_MOTION":15.30156512,"ECCENTRICITY":0.00010791,"INCLINATION":53.1586,"RA_OF_ASC_NODE":268.4462,"ARG_OF_PERICENTER":89.028,"MEAN_ANOMALY":271.0845,"EPHEMERIS_TYPE":0,"CLASSIFICATION_TYPE":"U","NORAD_CAT_ID":60739,"ELEMENT_SET_NO":999,"REV_AT_EPOCH":8680,"BSTAR":-0.00015117332,"MEAN_MOTION_DOT":-4.827e-5,"MEAN_MOTION_DDOT":0},{"OBJECT_NAME":"OBJECT BC","OBJECT_ID":"2025-313BC","EPOCH":"2026-03-09T04:33:08.504064","MEAN_MOTION":15.29126358,"ECCENTRICITY":0.00084789,"INCLINATION":97.3985,"RA_OF_ASC_NODE":144.811,"ARG_OF_PERICENTER":328.9209,"MEAN_ANOMALY":31.1528,"EPHEMERIS_TYPE":0,"CLASSIFICATION_TYPE":"U","NORAD_CAT_ID":67298,"ELEMENT_SET_NO":999,"REV_AT_EPOCH":789,"BSTAR":0.0026410397,"MEAN_MOTION_DOT":0.00075331,"MEAN_MOTION_DDOT":0}]
